BEIJING 1               
1 28890U 05043A   24332.46474342  .00001380  00000+0  27970-3 0  9996
2 28890  98.2201  94.3726 0013620 254.1393 105.8307 14.62789169 17758
HUANJING 1A (HJ-1A)     
1 33320U 08041A   24332.50954207  .00004794  00000+0  61737-3 0  9990
2 33320  97.6344 331.6369 0019255 192.8080 167.2646 14.81395002874528
HUANJING 1B (HJ-1B)     
1 33321U 08041B   24332.09460910  .00003347  00000+0  43065-3 0  9995
2 33321  97.6267 335.6867 0036205 242.2950 117.4588 14.81297650874487
YAOGAN-4                
1 33446U 08061A   24332.26060191  .00003293  00000+0  43070-3 0  9997
2 33446  97.8908 261.2324 0016232 112.8434 247.4495 14.81016483861680
DEIMOS-1                
1 35681U 09041A   24332.09148037  .00002057  00000+0  32005-3 0  9999
2 35681  97.6831 145.4273 0001078 155.1602 204.9659 14.73990400823309
UK-DMC 2                
1 35683U 09041C   24332.42384133  .00003185  00000+0  48848-3 0  9992
2 35683  97.8029 113.6873 0001068  84.5537 275.5794 14.74287630823057
DMC3-FM1                
1 40715U 15032A   24332.47070759  .00002532  00000+0  30701-3 0  9996
2 40715  97.7237 206.4325 0007059 111.0659 249.1312 14.84436998505794
DMC3-FM2                
1 40716U 15032B   24332.08856019  .00002204  00000+0  26795-3 0  9999
2 40716  97.7292 207.2414 0008810 117.5476 242.6635 14.84431399505738
DMC3-FM3                
1 40717U 15032C   24332.52776448  .00002488  00000+0  30235-3 0  9994
2 40717  97.7344 209.0207 0010322 114.7441 245.4849 14.84339067505804
